STARLINK-32597          
1 62304U 24239D   26068.63054263  .00031352  00000+0  10666-2 0  9990
2 62304  53.1595 181.5021 0000742  99.1720 260.9365 15.30189120 69550
TEVEL2-3                
1 63218U 25052J   26068.64540225  .00020365  00000+0  69446-3 0  9991
2 63218  97.3994 324.7775 0004761 105.7353 254.4413 15.30377031 54855
